[{"OBJECT_NAME":"SENTINEL-2B","OBJECT_ID":"2017-013A","EPOCH":"2026-03-09T23:26:28.535424","MEAN_MOTION":14.30819717,"ECCENTRICITY":0.00011315,"INCLINATION":98.565,"RA_OF_ASC_NODE":145.1663,"ARG_OF_PERICENTER":94.2934,"MEAN_ANOMALY":265.8378,"EPHEMERIS_TYPE":0,"CLASSIFICATION_TYPE":"U","NORAD_CAT_ID":42063,"ELEMENT_SET_NO":999,"REV_AT_EPOCH":47045,"BSTAR":3.8552046e-5,"MEAN_MOTION_DOT":5.7e-7,"MEAN_MOTION_DDOT":0},{"OBJECT_NAME":"DMSP 5D-2 F10 (USA 68)","OBJECT_ID":"1990-105A","EPOCH":"2026-03-09T16:59:46.485024","MEAN_MOTION":14.40095279,"ECCENTRICITY":0.00705074,"INCLINATION":98.6217,"RA_OF_ASC_NODE":128.0545,"ARG_OF_PERICENTER":221.0641,"MEAN_ANOMALY":138.5227,"EPHEMERIS_TYPE":0,"CLASSIFICATION_TYPE":"U","NORAD_CAT_ID":20978,"ELEMENT_SET_NO":999,"REV_AT_EPOCH":84819,"BSTAR":0.00014242072,"MEAN_MOTION_DOT":4.16e-6,"MEAN_MOTION_DDOT":0}]
